[{"OBJECT_NAME":"SHIYAN-5 (SY-5)","OBJECT_ID":"2013-068A","EPOCH":"2026-03-09T23:05:17.847168","MEAN_MOTION":14.43628019,"ECCENTRICITY":0.00128666,"INCLINATION":98.0874,"RA_OF_ASC_NODE":305.1507,"ARG_OF_PERICENTER":245.0461,"MEAN_ANOMALY":114.9394,"EPHEMERIS_TYPE":0,"CLASSIFICATION_TYPE":"U","NORAD_CAT_ID":39455,"ELEMENT_SET_NO":999,"REV_AT_EPOCH":64731,"BSTAR":0.00021006914,"MEAN_MOTION_DOT":6.72e-6,"MEAN_MOTION_DDOT":0},{"OBJECT_NAME":"CZ-6A DEB","OBJECT_ID":"2024-140QB","EPOCH":"2026-03-09T19:51:52.909344","MEAN_MOTION":14.55846203,"ECCENTRICITY":0.00762763,"INCLINATION":88.9454,"RA_OF_ASC_NODE":278.7016,"ARG_OF_PERICENTER":225.2668,"MEAN_ANOMALY":134.2317,"EPHEMERIS_TYPE":0,"CLASSIFICATION_TYPE":"U","NORAD_CAT_ID":61133,"ELEMENT_SET_NO":999,"REV_AT_EPOCH":8195,"BSTAR":0.00090401803,"MEAN_MOTION_DOT":4.138e-5,"MEAN_MOTION_DDOT":0}]
